NORAD_CAT_ID,OBJECT_NAME,OBJECT_TYPE,EPOCH,MEAN_MOTION,ECCENTRICITY,INCLINATION,RA_OF_ASC_NODE,ARG_OF_PERICENTER,MEAN_ANOMALY,BSTAR,MEAN_MOTION_DOT,MEAN_MOTION_DDOT,TLE_LINE0,TLE_LINE1,TLE_LINE2,SEMIMAJOR_AXIS,PERIOD,APOGEE,PERIGEE,DECAYED
53986.0,STARLINK-5119,PAYLOAD,2024-07-17 19:03:57,15.08834951,0.0001303,53.2185,16.8371,80.1349,279.9791,-0.00011654,-2.142e-05,0.0,0 STARLINK-5119,1 53986U 22125Y   24199.79441985 -.00002142  00000-0 -11654-3 0  9996,2 53986  53.2185  16.8371 0001303  80.1349 279.9791 15.08834951 99113,6917.896,95.438,540.662,538.859,0.0
53986.0,STARLINK-5119,PAYLOAD,2024-07-18 10:57:49,15.08832076,0.0001113,53.2189,13.8661,85.0223,275.0897,4.7844e-05,4.74e-06,0.0,0 STARLINK-5119,1 53986U 22125Y   24200.45682409  .00000474  00000-0  47844-4 0  9995,2 53986  53.2189  13.8661 0001113  85.0223 275.0897 15.08832076 99132,6917.905,95.438,540.54,539.0,0.0
53986.0,STARLINK-5119,PAYLOAD,2024-07-18 18:54:45,15.08843262,0.0001316,53.2188,12.3794,83.1381,276.9761,0.00020241,2.935e-05,0.0,0 STARLINK-5119,1 53986U 22125Y   24200.78802295  .00002935  00000-0  20241-3 0  9993,2 53986  53.2188  12.3794 0001316  83.1381 276.9761 15.08843262 99185,6917.87,95.437,540.646,538.825,0.0
53986.0,STARLINK-5119,PAYLOAD,2024-07-19 10:48:37,15.08840973,0.0001599,53.2178,9.4052,55.3722,304.7421,0.00037509,5.687e-05,0.0,0 STARLINK-5119,1 53986U 22125Y   24201.45042911  .00005687  00000-0  37509-3 0  9991,2 53986  53.2178   9.4052 0001599  55.3722 304.7421 15.08840973 99360,6917.877,95.437,540.849,538.636,0.0
53986.0,STARLINK-5119,PAYLOAD,2024-07-19 18:45:32,15.08850365,0.0001611,53.2178,7.9199,54.5287,305.5855,0.00042433,6.474e-05,0.0,0 STARLINK-5119,1 53986U 22125Y   24201.78162374  .00006474  00000-0  42433-3 0  9990,2 53986  53.2178   7.9199 0001611  54.5287 305.5855 15.08850365 99330,6917.849,95.437,540.828,538.599,0.0
53986.0,STARLINK-5119,PAYLOAD,2024-07-20 04:17:50,15.08849012,0.0001059,53.2169,6.1317,90.2884,269.823,0.00027338,4.067e-05,0.0,0 STARLINK-5119,1 53986U 22125Y   24202.17906043  .00004067  00000-0  27338-3 0  9996,2 53986  53.2169   6.1317 0001059  90.2884 269.8230 15.08849012 99391,6917.853,95.437,540.45,538.985,0.0
53986.0,STARLINK-5119,PAYLOAD,2024-07-20 18:36:18,15.08849618,0.0001013,53.2173,3.4541,94.8031,265.3077,0.00016006,2.261e-05,0.0,0 STARLINK-5119,1 53986U 22125Y   24202.77521846  .00002261  00000-0  16006-3 0  9990,2 53986  53.2173   3.4541 0001013  94.8031 265.3077 15.08849618 99560,6917.851,95.437,540.417,539.015,0.0
53986.0,STARLINK-5119,PAYLOAD,2024-07-21 04:08:37,15.08843359,0.0001105,53.2176,1.6745,76.925,283.1866,8.5644e-05,1.076e-05,0.0,0 STARLINK-5119,1 53986U 22125Y   24203.17266157  .00001076  00000-0  85644-4 0  9994,2 53986  53.2176   1.6745 0001105  76.9250 283.1866 15.08843359 99622,6917.87,95.437,540.5,538.971,0.0
53986.0,STARLINK-5119,PAYLOAD,2024-07-21 16:51:43,15.08840936,0.0001255,53.218,359.2913,98.5779,261.5355,1.3575e-05,-7.2e-07,0.0,0 STARLINK-5119,1 53986U 22125Y   24203.70258339 -.00000072  00000-0  13575-4 0  9996,2 53986  53.2180 359.2913 0001255  98.5779 261.5355 15.08840936 99629,6917.878,95.437,540.611,538.874,0.0
53986.0,STARLINK-5119,PAYLOAD,2024-07-22 10:20:58,15.08838383,0.0001097,53.2166,356.0229,91.4383,268.6734,0.00018833,2.711e-05,0.0,0 STARLINK-5119,1 53986U 22125Y   24204.43122788  .00002711  00000-0  18833-3 0  9997,2 53986  53.2166 356.0229 0001097  91.4383 268.6734 15.08838383 99818,6917.885,95.438,540.509,538.991,0.0
53986.0,STARLINK-5119,PAYLOAD,2024-07-23 10:11:45,15.08843074,0.0001356,53.2177,351.5616,90.1279,269.9868,0.00023308,3.424e-05,0.0,0 STARLINK-5119,1 53986U 22125Y   24205.42482862  .00003424  00000-0  23308-3 0  9994,2 53986  53.2177 351.5616 0001356  90.1279 269.9868 15.08843074 99880,6917.871,95.437,540.674,538.798,0.0
53986.0,STARLINK-5119,PAYLOAD,2024-07-23 19:44:03,15.08844525,0.000143,53.2177,349.779,78.6389,281.4764,0.00019741,2.856e-05,0.0,0 STARLINK-5119,1 53986U 22125Y   24205.82226835  .00002856  00000-0  19741-3 0  9998,2 53986  53.2177 349.7790 0001430  78.6389 281.4764 15.08844525100023,6917.867,95.437,540.721,538.742,0.0
53986.0,STARLINK-5119,PAYLOAD,2024-07-24 10:02:31,15.08851942,0.0001358,53.2199,347.1021,74.7179,285.3964,0.00024521,3.618e-05,0.0,0 STARLINK-5119,1 53986U 22125Y   24206.41842232  .00003618  00000-0  24521-3 0  9998,2 53986  53.2199 347.1021 0001358  74.7179 285.3964 15.08851942100036,6917.844,95.437,540.648,538.769,0.0
53986.0,STARLINK-5119,PAYLOAD,2024-07-25 09:53:19,15.08827477,9.14e-05,53.2159,342.6406,56.2913,303.8166,0.00014264,1.982e-05,0.0,0 STARLINK-5119,1 53986U 22125Y   24207.41203240  .00001982  00000-0  14264-3 0  9994,2 53986  53.2159 342.6406 0000914  56.2913 303.8166 15.08827477100268,6917.919,95.438,540.416,539.151,0.0
53986.0,STARLINK-5119,PAYLOAD,2024-07-25 17:50:15,15.08831894,9.3e-05,53.2218,341.1587,81.5224,278.5874,2.5252e-06,-2.48e-06,0.0,0 STARLINK-5119,1 53986U 22125Y   24207.74323693 -.00000248  00000-0  25252-5 0  9991,2 53986  53.2218 341.1587 0000930  81.5224 278.5874 15.08831894100231,6917.905,95.438,540.414,539.127,0.0
53986.0,STARLINK-5119,PAYLOAD,2024-07-26 01:47:10,15.0886672,9.07e-05,53.2212,339.6706,97.9952,262.1143,-0.00046411,-7.672e-05,0.0,0 STARLINK-5119,1 53986U 22125Y   24208.07442277 -.00007672  00000-0 -46411-3 0  9995,2 53986  53.2212 339.6706 0000907  97.9952 262.1143 15.08866720100361,6917.799,95.436,540.291,539.036,0.0
53986.0,STARLINK-5119,PAYLOAD,2024-07-26 17:41:01,15.0884443,0.0001373,53.2189,336.6929,90.9364,269.1786,0.00016337,2.313e-05,0.0,0 STARLINK-5119,1 53986U 22125Y   24208.73682301  .00002313  00000-0  16337-3 0  9991,2 53986  53.2189 336.6929 0001373  90.9364 269.1786 15.08844430100461,6917.867,95.437,540.682,538.782,0.0
53986.0,STARLINK-5119,PAYLOAD,2024-07-27 01:37:58,15.08828147,0.0001325,53.219,335.2078,91.3619,268.7525,0.00011526,1.546e-05,0.0,0 STARLINK-5119,1 53986U 22125Y   24209.06803379  .00001546  00000-0  11526-3 0  9990,2 53986  53.2190 335.2078 0001325  91.3619 268.7525 15.08828147100517,6917.917,95.438,540.698,538.865,0.0
53986.0,STARLINK-5119,PAYLOAD,2024-07-27 17:31:50,15.08825133,0.000211,53.213,332.2316,90.5458,269.5776,8.5501e-05,1.072e-05,0.0,0 STARLINK-5119,1 53986U 22125Y   24209.73044781  .00001072  00000-0  85501-4 0  9997,2 53986  53.2130 332.2316 0002110  90.5458 269.5776 15.08825133100539,6917.926,95.438,541.251,538.331,0.0
53986.0,STARLINK-5119,PAYLOAD,2024-07-28 12:36:26,15.08851379,9.81e-05,53.2177,328.6664,92.5679,267.5425,8.9602e-05,1.139e-05,0.0,0 STARLINK-5119,1 53986U 22125Y   24210.52530682  .00001139  00000-0  89602-4 0  9996,2 53986  53.2177 328.6664 0000981  92.5679 267.5425 15.08851379100738,6917.846,95.437,540.389,539.032,0.0
53986.0,STARLINK-5119,PAYLOAD,2024-07-28 15:47:12,15.08857813,0.0001245,53.2163,328.0705,95.3512,264.7622,0.00021694,3.168e-05,0.0,0 STARLINK-5119,1 53986U 22125Y   24210.65778519  .00003168  00000-0  21694-3 0  9993,2 53986  53.2163 328.0705 0001245  95.3512 264.7622 15.08857813100674,6917.826,95.436,540.552,538.83,0.0
53986.0,STARLINK-5119,PAYLOAD,2024-07-29 01:19:32,15.0884321,0.0001417,53.2194,326.2813,102.3079,257.8072,0.00021981,3.212e-05,0.0,0 STARLINK-5119,1 53986U 22125Y   24211.05523213  .00003212  00000-0  21981-3 0  9996,2 53986  53.2194 326.2813 0001417 102.3079 257.8072 15.08843210100810,6917.871,95.437,540.716,538.755,0.0
53986.0,STARLINK-5119,PAYLOAD,2024-07-29 14:02:37,15.08841577,0.0001637,53.22,323.903,101.1985,258.9191,0.00020517,2.979e-05,0.0,0 STARLINK-5119,1 53986U 22125Y   24211.58515457  .00002979  00000-0  20517-3 0  9998,2 53986  53.2200 323.9030 0001637 101.1985 258.9191 15.08841577100818,6917.876,95.437,540.873,538.608,0.0
53986.0,STARLINK-5119,PAYLOAD,2024-07-29 17:13:23,15.08845584,0.0001359,53.2167,323.3126,88.4766,271.6382,0.00013519,1.865e-05,0.0,0 STARLINK-5119,1 53986U 22125Y   24211.71763208  .00001865  00000-0  13519-3 0  9999,2 53986  53.2167 323.3126 0001359  88.4766 271.6382 15.08845584100833,6917.863,95.437,540.668,538.788,0.0
53986.0,STARLINK-5119,PAYLOAD,2024-07-30 01:10:19,15.08839168,0.0001408,53.2163,321.8257,83.5853,276.5299,3.0147e-05,1.92e-06,0.0,0 STARLINK-5119,1 53986U 22125Y   24212.04883540  .00000192  00000-0  30147-4 0  9997,2 53986  53.2163 321.8257 0001408  83.5853 276.5299 15.08839168100961,6917.883,95.438,540.722,538.774,0.0
53986.0,STARLINK-5119,PAYLOAD,2024-07-31 12:08:48,15.08836267,0.0001789,53.2172,315.2784,110.9905,249.1278,2.9389e-05,1.8e-06,0.0,0 STARLINK-5119,1 53986U 22125Y   24213.50612081  .00000180  00000-0  29389-4 0  9992,2 53986  53.2172 315.2784 0001789 110.9905 249.1278 15.08836267101183,6917.892,95.438,540.994,538.519,0.0
53986.0,STARLINK-5119,PAYLOAD,2024-07-31 13:44:12,15.08836439,0.0001226,53.2163,314.9865,85.7637,274.3495,0.00012365,1.68e-05,0.0,0 STARLINK-5119,1 53986U 22125Y   24213.57236189  .00001680  00000-0  12365-3 0  9991,2 53986  53.2163 314.9865 0001226  85.7637 274.3495 15.08836439101111,6917.891,95.438,540.604,538.908,0.0
53986.0,STARLINK-5119,PAYLOAD,2024-07-31 16:54:57,15.08846161,0.0001316,53.2166,314.3914,90.0507,270.0636,-7.9416e-05,-1.552e-05,0.0,0 STARLINK-5119,1 53986U 22125Y   24213.70483735 -.00001552  00000-0 -79416-4 0  9998,2 53986  53.2166 314.3914 0001316  90.0507 270.0636 15.08846161101212,6917.862,95.437,540.637,538.816,0.0
53986.0,STARLINK-5119,PAYLOAD,2024-08-01 11:59:35,15.08854998,0.0001202,53.2162,310.8229,87.2741,272.8389,0.00043685,6.674e-05,0.0,0 STARLINK-5119,1 53986U 22125Y   24214.49971317  .00006674  00000-0  43685-3 0  9999,2 53986  53.2162 310.8229 0001202  87.2741 272.8389 15.08854998101256,6917.835,95.437,540.531,538.868,0.0
53986.0,STARLINK-5119,PAYLOAD,2024-08-02 13:25:45,15.08834481,0.0001611,53.2177,306.0687,106.8456,253.2713,-0.00018956,-3.303e-05,0.0,0 STARLINK-5119,1 53986U 22125Y   24215.55955319 -.00003303  00000-0 -18956-3 0  9992,2 53986  53.2177 306.0687 0001611 106.8456 253.2713 15.08834481101497,6917.897,95.438,540.877,538.648,0.0
